[{"OBJECT_NAME":"EAGLET-I","OBJECT_ID":"2018-099AJ","EPOCH":"2026-03-09T16:28:56.807904","MEAN_MOTION":15.12108145,"ECCENTRICITY":0.00104863,"INCLINATION":97.4369,"RA_OF_ASC_NODE":120.9821,"ARG_OF_PERICENTER":336.8524,"MEAN_ANOMALY":23.2233,"EPHEMERIS_TYPE":0,"CLASSIFICATION_TYPE":"U","NORAD_CAT_ID":43790,"ELEMENT_SET_NO":999,"REV_AT_EPOCH":39729,"BSTAR":0.0003526184,"MEAN_MOTION_DOT":6.017e-5,"MEAN_MOTION_DDOT":0},{"OBJECT_NAME":"STARLINK-4640","OBJECT_ID":"2022-107AE","EPOCH":"2026-03-09T21:13:34.281120","MEAN_MOTION":15.08824415,"ECCENTRICITY":0.00012121,"INCLINATION":53.2166,"RA_OF_ASC_NODE":253.2017,"ARG_OF_PERICENTER":96.1945,"MEAN_ANOMALY":263.9186,"EPHEMERIS_TYPE":0,"CLASSIFICATION_TYPE":"U","NORAD_CAT_ID":53728,"ELEMENT_SET_NO":999,"REV_AT_EPOCH":19458,"BSTAR":0.00011123805,"MEAN_MOTION_DOT":1.482e-5,"MEAN_MOTION_DDOT":0}]
